[
    {
        "ARG_OF_PERICENTER": 161.6065,
        "BSTAR": 3.5136913e-05,
        "CLASSIFICATION_TYPE": "U",
        "ECCENTRICITY": 0.00419888,
        "ELEMENT_SET_NO": 999,
        "EPHEMERIS_TYPE": 0,
        "EPOCH": "2026-06-19T10:50:12.672384",
        "INCLINATION": 24.9676,
        "MEAN_ANOMALY": 309.142,
        "MEAN_MOTION": 14.4611945,
        "MEAN_MOTION_DDOT": 0,
        "MEAN_MOTION_DOT": 3.15e-06,
        "NORAD_CAT_ID": 22490,
        "OBJECT_ID": "1993-009B",
        "OBJECT_NAME": "SCD 1",
        "RA_OF_ASC_NODE": 193.5957,
        "REV_AT_EPOCH": 76144
    },
    {
        "ARG_OF_PERICENTER": 158.0468,
        "BSTAR": 3.2334137e-05,
        "CLASSIFICATION_TYPE": "U",
        "ECCENTRICITY": 0.0001179,
        "ELEMENT_SET_NO": 999,
        "EPHEMERIS_TYPE": 0,
        "EPOCH": "2026-06-19T14:14:07.076544",
        "INCLINATION": 99.0068,
        "MEAN_ANOMALY": 202.076,
        "MEAN_MOTION": 14.24428772,
        "MEAN_MOTION_DDOT": 0,
        "MEAN_MOTION_DOT": 2.8e-07,
        "NORAD_CAT_ID": 25397,
        "OBJECT_ID": "1998-043D",
        "OBJECT_NAME": "TECHSAT 1B (GO-32)",
        "RA_OF_ASC_NODE": 163.4125,
        "REV_AT_EPOCH": 45167
    },
    {
        "ARG_OF_PERICENTER": 145.9714,
        "BSTAR": 4.5161712e-05,
        "CLASSIFICATION_TYPE": "U",
        "ECCENTRICITY": 0.00168785,
        "ELEMENT_SET_NO": 999,
        "EPHEMERIS_TYPE": 0,
        "EPOCH": "2026-06-19T09:27:22.379328",
        "INCLINATION": 24.9958,
        "MEAN_ANOMALY": 14.9585,
        "MEAN_MOTION": 14.45526591,
        "MEAN_MOTION_DDOT": 0,
        "MEAN_MOTION_DOT": 3.44e-06,
        "NORAD_CAT_ID": 25504,
        "OBJECT_ID": "1998-060A",
        "OBJECT_NAME": "SCD 2",
        "RA_OF_ASC_NODE": 58.5474,
        "REV_AT_EPOCH": 46064
    },
    {
        "ARG_OF_PERICENTER": 347.9099,
        "BSTAR": 2.2764201e-05,
        "CLASSIFICATION_TYPE": "U",
        "ECCENTRICITY": 0.00138973,
        "ELEMENT_SET_NO": 999,
        "EPHEMERIS_TYPE": 0,
        "EPOCH": "2026-06-19T13:36:12.229344",
        "INCLINATION": 98.6695,
        "MEAN_ANOMALY": 12.176,
        "MEAN_MOTION": 14.52427292,
        "MEAN_MOTION_DDOT": 0,
        "MEAN_MOTION_DOT": 4.4e-07,
        "NORAD_CAT_ID": 25757,
        "OBJECT_ID": "1999-029B",
        "OBJECT_NAME": "DLR-TUBSAT",
        "RA_OF_ASC_NODE": 166.1492,
        "REV_AT_EPOCH": 43359
    },
    {
        "ARG_OF_PERICENTER": 181.551,
        "BSTAR": 6.4190832e-05,
        "CLASSIFICATION_TYPE": "U",
        "ECCENTRICITY": 0.00017729,
        "ELEMENT_SET_NO": 999,
        "EPHEMERIS_TYPE": 0,
        "EPOCH": "2026-06-19T13:41:13.817184",
        "INCLINATION": 97.9455,
        "MEAN_ANOMALY": 339.0816,
        "MEAN_MOTION": 14.61104662,
        "MEAN_MOTION_DDOT": 0,
        "MEAN_MOTION_DOT": 2.71e-06,
        "NORAD_CAT_ID": 25994,
        "OBJECT_ID": "1999-068A",
        "OBJECT_NAME": "TERRA",
        "RA_OF_ASC_NODE": 220.0221,
        "REV_AT_EPOCH": 40995
    },
    {
        "ARG_OF_PERICENTER": 135.7462,
        "BSTAR": 1.025401e-05,
        "CLASSIFICATION_TYPE": "U",
        "ECCENTRICITY": 0.00203939,
        "ELEMENT_SET_NO": 999,
        "EPHEMERIS_TYPE": 0,
        "EPOCH": "2026-06-19T09:41:18.277728",
        "INCLINATION": 99.8084,
        "MEAN_ANOMALY": 246.476,
        "MEAN_MOTION": 13.70262508,
        "MEAN_MOTION_DDOT": 0,
        "MEAN_MOTION_DOT": -3.8e-07,
        "NORAD_CAT_ID": 27004,
        "OBJECT_ID": "2001-056D",
        "OBJECT_NAME": "MAROC-TUBSAT",
        "RA_OF_ASC_NODE": 347.305,
        "REV_AT_EPOCH": 22649
    },
    {
        "ARG_OF_PERICENTER": 54.6608,
        "BSTAR": 0.00012426025,
        "CLASSIFICATION_TYPE": "U",
        "ECCENTRICITY": 0.00010084,
        "ELEMENT_SET_NO": 999,
        "EPHEMERIS_TYPE": 0,
        "EPOCH": "2026-06-19T15:56:28.156992",
        "INCLINATION": 98.4277,
        "MEAN_ANOMALY": 57.0914,
        "MEAN_MOTION": 14.62161192,
        "MEAN_MOTION_DDOT": 0,
        "MEAN_MOTION_DOT": 5.76e-06,
        "NORAD_CAT_ID": 27424,
        "OBJECT_ID": "2002-022A",
        "OBJECT_NAME": "AQUA",
        "RA_OF_ASC_NODE": 139.9965,
        "REV_AT_EPOCH": 28363
    },
    {
        "ARG_OF_PERICENTER": 24.9892,
        "BSTAR": 0.00034917003,
        "CLASSIFICATION_TYPE": "U",
        "ECCENTRICITY": 0.0005377,
        "ELEMENT_SET_NO": 999,
        "EPHEMERIS_TYPE": 0,
        "EPOCH": "2026-06-19T11:12:29.478240",
        "INCLINATION": 97.8687,
        "MEAN_ANOMALY": 335.1609,
        "MEAN_MOTION": 15.33808861,
        "MEAN_MOTION_DDOT": 0,
        "MEAN_MOTION_DOT": 0.00011339,
        "NORAD_CAT_ID": 28220,
        "OBJECT_ID": "2004-012A",
        "OBJECT_NAME": "SHIYAN-1 (SY-1)",
        "RA_OF_ASC_NODE": 248.6837,
        "REV_AT_EPOCH": 21144
    },
    {
        "ARG_OF_PERICENTER": 76.9401,
        "BSTAR": 0.00012748629,
        "CLASSIFICATION_TYPE": "U",
        "ECCENTRICITY": 0.00011883,
        "ELEMENT_SET_NO": 999,
        "EPHEMERIS_TYPE": 0,
        "EPOCH": "2026-06-19T14:06:44.224704",
        "INCLINATION": 98.3417,
        "MEAN_ANOMALY": 283.1932,
        "MEAN_MOTION": 14.61332106,
        "MEAN_MOTION_DDOT": 0,
        "MEAN_MOTION_DOT": 5.82e-06,
        "NORAD_CAT_ID": 28376,
        "OBJECT_ID": "2004-026A",
        "OBJECT_NAME": "AURA",
        "RA_OF_ASC_NODE": 127.0612,
        "REV_AT_EPOCH": 16656
    },
    {
        "ARG_OF_PERICENTER": 77.0281,
        "BSTAR": 0.00010569729,
        "CLASSIFICATION_TYPE": "U",
        "ECCENTRICITY": 0.00025323,
        "ELEMENT_SET_NO": 999,
        "EPHEMERIS_TYPE": 0,
        "EPOCH": "2026-06-19T13:28:17.081184",
        "INCLINATION": 97.5306,
        "MEAN_ANOMALY": 283.1221,
        "MEAN_MOTION": 14.91054422,
        "MEAN_MOTION_DDOT": 0,
        "MEAN_MOTION_DOT": 9.94e-06,
        "NORAD_CAT_ID": 28649,
        "OBJECT_ID": "2005-017A",
        "OBJECT_NAME": "IRS-P5 (CARTOSAT-1)",
        "RA_OF_ASC_NODE": 193.5182,
        "REV_AT_EPOCH": 14417
    },
    {
        "ARG_OF_PERICENTER": 268.5158,
        "BSTAR": 5.2386545e-05,
        "CLASSIFICATION_TYPE": "U",
        "ECCENTRICITY": 0.00131337,
        "ELEMENT_SET_NO": 999,
        "EPHEMERIS_TYPE": 0,
        "EPOCH": "2026-06-19T13:59:06.177696",
        "INCLINATION": 98.2865,
        "MEAN_ANOMALY": 91.4539,
        "MEAN_MOTION": 14.64158912,
        "MEAN_MOTION_DDOT": 0,
        "MEAN_MOTION_DOT": 2.26e-06,
        "NORAD_CAT_ID": 28893,
        "OBJECT_ID": "2005-043D",
        "OBJECT_NAME": "SINAH 1",
        "RA_OF_ASC_NODE": 304.9187,
        "REV_AT_EPOCH": 10087
    },
    {
        "ARG_OF_PERICENTER": 290.7888,
        "BSTAR": 9.3163662e-05,
        "CLASSIFICATION_TYPE": "U",
        "ECCENTRICITY": 0.00068801,
        "ELEMENT_SET_NO": 999,
        "EPHEMERIS_TYPE": 0,
        "EPOCH": "2026-06-19T11:32:53.465568",
        "INCLINATION": 69.933,
        "MEAN_ANOMALY": 69.2541,
        "MEAN_MOTION": 15.13225616,
        "MEAN_MOTION_DDOT": 0,
        "MEAN_MOTION_DOT": 1.551e-05,
        "NORAD_CAT_ID": 29228,
        "OBJECT_ID": "2006-021A",
        "OBJECT_NAME": "RESURS-DK 1",
        "RA_OF_ASC_NODE": 333.6151,
        "REV_AT_EPOCH": 10292
    },
    {
        "ARG_OF_PERICENTER": 67.7686,
        "BSTAR": -3.17636e-07,
        "CLASSIFICATION_TYPE": "U",
        "ECCENTRICITY": 0.00158774,
        "ELEMENT_SET_NO": 999,
        "EPHEMERIS_TYPE": 0,
        "EPOCH": "2026-06-19T14:54:30.066048",
        "INCLINATION": 97.8306,
        "MEAN_ANOMALY": 22.7382,
        "MEAN_MOTION": 14.64660454,
        "MEAN_MOTION_DDOT": 0,
        "MEAN_MOTION_DOT": -4.7e-07,
        "NORAD_CAT_ID": 29268,
        "OBJECT_ID": "2006-031A",
        "OBJECT_NAME": "ARIRANG-2 (KOMPSAT-2)",
        "RA_OF_ASC_NODE": 354.9495,
        "REV_AT_EPOCH": 6183
    }
]